[Satellite]
VERSION=1.1
NAME=HIMAWARI 6 (MTSAT-1R)
NICKNAME=HIMAWARI 6 (MTSAT-1R)
TLE1=1 28622U 05006A   15053.69668289 -.00000306  00000-0  00000+0 0  9998
TLE2=2 28622   0.0088 313.9878 0003866  29.9897 199.0055  1.00270295 36570
